STARS-AO
1 43679U 18084J   25361.78425236  .00009554  00000-0  52274-3 0  9990
2 43679  98.0632 200.2852 0003222  47.3553 312.7949 15.14487260391505
LUOJIA-1 01
1 43485U 18048B   25362.17808228  .00002393  00000-0  27699-3 0  9992
2 43485  97.8273  78.0934 0008343 331.4148  28.6609 14.86418768408809
DIWATA-2B (PO-101)
1 43678U 18084H   25362.20038609  .00002950  00000-0  24534-3 0  9992
2 43678  98.1052 186.2878 0007447   6.9077 353.2246 14.99526559390581
ESHAIL-2
1 43700U 18090A   25362.09002948  .00000000  00000-0  00000+0 0  9991
2 43700   0.0239  19.3003 0001361 280.6074 215.0795  1.00269838 25962
K2SAT
1 43761U 18099D   25361.54950744  .00003726  00000-0  26238-3 0  9995
2 43761  97.4430  43.5426 0011038 206.5288 153.5376 15.05577123386270
AISTECHSAT-2
1 43768U 18099L   25362.09364470  .00008431  00000-0  47786-3 0  9997
2 43768  97.4568  48.8773 0005276 157.1362 203.0105 15.13226499386382
SNUSAT-2
1 43782U 18099AA  25361.88182455  .00011477  00000-0  55758-3 0  9992
2 43782  97.4338  53.0297 0011283 167.6104 192.5410 15.18550633387003
ITASAT-1
1 43786U 18099AE  25362.14126389  .00009576  00000-0  49647-3 0  9997
2 43786  97.4306  52.1319 0012240 223.8365 136.1898 15.16309481386964
IRVINE02
1 43789U 18099AH  25362.19538622  .00190859  00000-0  17268-2 0  9990
2 43789  97.4356  76.2982 0003773 129.9290 230.2303 15.67477100388193
EAGLET-1
1 43790U 18099AJ  25362.06675353  .00006014  00000-0  36072-3 0  9995
2 43790  97.4504  51.2093 0010602 209.8304 150.2323 15.11266869386478
ESEO
1 43792U 18099AL  25362.12196370  .00002878  00000-0  21475-3 0  9996
2 43792  97.4235  41.6769 0011989 189.8889 170.2103 15.03557971386092
HIBER-2
1 43774U 18099S   25362.17215696  .00255009  00000-0  17509-2 0  9992
2 43774  97.4575  78.6491 0000574 181.1155 179.0108 15.73945819388408
MINXSS-2
1 43758U 18099A   25362.14075068  .00033066  00000-0  96151-3 0  9996
2 43758  97.4774  69.7203 0009874 156.3281 203.8419 15.35333921387783
FOX-1CLIFF (AO-95)
1 43770U 18099N   25362.11094132  .00015941  00000-0  69455-3 0  9999
2 43770  97.4653  58.2806 0008544 224.1260 135.9295 15.22250833387153
CORVUS-BC4
1 43767U 18099K   25362.08044515  .00007156  00000-0  43534-3 0  9990
2 43767  97.4334  45.0254 0007514 225.1978 134.8641 15.10706357386559
CZ-4B R/B
1 43656U 18081B   25361.70037147  .00000276  00000-0  98765-4 0  9992
2 43656  99.3756 260.9128 0205587  40.8782 320.7613 14.31767220374761
COSMOS 2504 [i]
1 40555U 15020D   25362.15890522  .00000570  00000-0  20470-3 0  9995
2 40555  82.5170   3.4831 0609112  19.3067 343.0100 13.61245572526929
MERIDIAN-4
1 37398U 11018A   25360.83172391  .00001618  00000-0  20194-2 0  9995
2 37398  62.1429 102.3387 7470449 263.3589  15.3859  2.00798158107303
MERIDIAN-6
1 38995U 12063A   25361.10128310 -.00000386  00000-0  00000-0 0  9997
2 38995  64.4242  19.6448 7304783 229.5951  39.7831  2.00537540 96052
MERIDIAN-7
1 40296U 14069A   25361.69014308  .00000130  00000-0  00000+0 0  9992
2 40296  63.4660 232.4917 6721819 271.6197  18.7110  2.00595923 81791
METOP-C
1 43689U 18087A   25362.16641368  .00000162  00000-0  93818-4 0  9999
2 43689  98.6908  59.6979 0000461   8.4523 351.6662 14.21490414370537
FENGYUN-3B
1 37214U 10059A   25362.23596250 -.00000055  00000-0 -49218-5 0  9993
2 37214  98.9889  42.3198 0021360 313.2297 123.8178 14.14794045783250
FENGYUN-3C
1 39260U 13052A   25362.22286265  .00000143  00000-0  93742-4 0  9999
2 39260  98.4782 339.1475 0015137 151.6325 208.5676 14.15701140634373
EWS-G1 (GOES-13)
1 29155U 06018A   25361.66158516  .00000070  00000-0  00000-0 0  9999
2 29155   4.0858  78.5365 0060650 269.2830 232.3838  0.98784489 41551
FENGYUN-2H
1 43491U 18050A   25362.12813355 -.00000108  00000-0  00000+0 0  9990
2 43491   2.5882  81.1679 0002582 167.5473 333.5785  1.00269785 27720
FENGYUN-2G
1 40367U 14090A   25362.06079314 -.00000282  00000-0  00000+0 0  9994
2 40367   5.2038  74.9091 0001933 171.4196 331.6749  1.00280632 40284
INMARSAT 4-F1
1 28628U 05009A   25361.43434753  .00000052  00000-0  00000-0 0  9997
2 28628   4.9361  42.6318 0002593 239.4604 148.5486  1.00271302 75950
INMARSAT 4-F2
1 28899U 05044A   25361.28254132 -.00000241  00000-0  00000-0 0  9991
2 28899   4.8699  43.7147 0002646 230.5744  66.9378  1.00270915 73793
INMARSAT 4-F3
1 33278U 08039A   25362.09294666 -.00000120  00000-0  00000+0 0  9996
2 33278   4.1481  30.8967 0002947 251.3369 110.0310  1.00270625 44824
INMARSAT 4A-F4 (ALPHASAT)
1 39215U 13038A   25362.11730014  .00000155  00000-0  00000+0 0  9990
2 39215   2.9690   2.7555 0002455 269.5988 251.5888  1.00276656 42304
ASTROCAST
1 43798U 18099AS  25362.08792380  .00033077  00000-0  88153-3 0  9991
2 43798  97.4603  71.5588 0007187 114.2180 245.9816 15.38075029388033
JY1SAT (JO-97)
1 43803U 18099AX  25362.08329723  .00020013  00000-0  74843-3 0  9992
2 43803  97.4402  59.8524 0007006 147.9130 212.2537 15.27343566387458
SUOMI-100
1 43804U 18099AY  25362.09052238  .00016190  00000-0  67509-3 0  9990
2 43804  97.4463  58.4329 0011462 157.3724 202.8021 15.23710886387327
GEO-KOMPSAT-2A
1 43823U 18100A   25361.85244256 -.00000321  00000-0  00000+0 0  9999
2 43823   0.0438 164.4411 0000291 301.3818  65.8889  1.00272104 25912
UWE-4
1 43880U 18111E   25361.30320465  .00027040  00000-0  79310-3 0  9991
2 43880  97.5857 278.2394 0007927 209.8308 150.2484 15.35123463384312
D-STAR ONE SPARROW
1 43881U 18111F   25362.07396125  .00058641  00000-0  12201-2 0  9999
2 43881  97.6096 286.2496 0002280 206.5005 153.6127 15.45430168384737
METEOR M2-2
1 44387U 19038A   25362.19177227  .00000351  00000-0  17167-3 0  9995
2 44387  98.8993 342.1111 0001896 119.5144 240.6223 14.24298850336954
MOMENTUS-X1
1 44408U 19038Y   25362.03811703  .00033182  00000-0  51808-3 0  9994
2 44408  97.7027  28.3006 0008694 285.9903  74.0392 15.53713981359876
MERIDIAN-8
1 44453U 19046A   25362.24759020  .00000046  00000-0  00000+0 0  9996
2 44453  62.9782  72.5398 7016495 274.3561  15.3173  2.00627908 46914
TAURUS-1
1 44530U 19059C   25362.16217645  .00007258  00000-0  12345-2 0  9999
2 44530  98.6231 151.8679 0009157 128.2263 231.9767 14.69395581333500
GAOFEN 12-01
1 44819U 19082A   25362.21861640  .00000671  00000-0  93917-4 0  9999
2 44819  97.8125   8.0933 0002456 169.2948 190.8317 14.80676045328798
CAS-6 (TO-108)
1 44881U 19093C   25362.18654872  .00001052  00000-0  12596-3 0  9990
2 44881  97.7738  73.4714 0012326 292.4990  67.4921 14.86139294326011
ELEKTRO-L3
1 44903U 19095A   25360.80275502 -.00000073  00000-0  00000-0 0  9990
2 44903   0.0519 250.4319 0002630  31.5872 178.4844  1.00267692 21987
DOSAAF-85 (RS-44)
1 44909U 19096E   25362.18133931  .00000022  00000-0  40513-4 0  9999
2 44909  82.5217  93.3489 0217631 183.9527 175.9864 12.79746329280475
MERIDIAN-9
1 45254U 20015A   25361.98540370 -.00000182  00000-0  00000+0 0  9992
2 45254  65.4596 337.3690 6909170 280.7398  14.0662  2.00614839 42858
ION-MK01
1 46274U 20061C   25362.18283632  .00084294  00000-0  69957-3 0  9999
2 46274  97.2161  73.0884 0001569 166.7273 193.4031 15.69935541296370
DEKART
1 46493U 20068H   25362.23227584  .00015987  00000-0  51032-3 0  9997
2 46493  97.8738 354.8755 0010424 160.5020 199.6622 15.32532537289541
NORBY
1 46494U 20068J   25362.24385741  .00028401  00000-0  71475-3 0  9997
2 46494  97.8679 359.1880 0009181 142.6656 217.5229 15.39854941289824
SALSAT (TUBSAT 22)
1 46495U 20068K   25361.93667742  .00011320  00000-0  43467-3 0  9999
2 46495  97.8801 350.0318 0010342 172.1050 188.0352 15.26589252289202
NETSAT-4
1 46504U 20068U   25361.54089961  .00020817  00000-0  57164-3 0  9998
2 46504  97.8608 351.8501 0005311 194.5396 165.5695 15.37261899289343
NETSAT-3
1 46505U 20068V   25361.92267701  .00021864  00000-0  62784-3 0  9998
2 46505  97.8629 350.7475 0004522 211.4146 148.6827 15.35858815289336
NETSAT-1
1 46506U 20068W   25361.91100044  .00017835  00000-0  62519-3 0  9993
2 46506  97.8686 346.8868 0003899 237.3635 122.7228 15.29520232289079
NETSAT-2
1 46507U 20068X   25361.73051927  .00025090  00000-0  67554-3 0  9995
2 46507  97.8618 351.5427 0002647 225.3397 134.7631 15.37843439289315
ARKTIKA-M1
1 47719U 21016A   25361.03031895 -.00000046  00000-0  00000-0 0  9995
2 47719  63.1774  82.0436 7211283 269.1745  15.5297  2.00630341 35331
SIMBA
1 47941U 21022K   25362.22531757  .00145390  00000-0  11866-2 0  9998
2 47941  97.4040 273.7614 0002265 342.2797  17.8386 15.70148276264512
UNISAT-7
1 47945U 21022P   25362.17230875  .00018484  00000-0  54440-3 0  9992
2 47945  97.4030 260.8075 0009616 340.6744  19.4134 15.35052637263574
CSS (TIANHE-1)
1 48274U 21035A   25362.14831690  .00021938  00000-0  26879-3 0  9994
2 48274  41.4673 283.1187 0008946 164.7819 195.3290 15.59789598266431
FENGYUN-4B
1 48808U 21047A   25353.65834837 -.00000306  00000-0  00000+0 0  9993
2 48808   0.0316 352.6113 0010161  17.0529  60.4338  1.00276241 16772
CUTE-LASP
1 49263U 21088D   25361.79407264  .00034147  00000-0  43003-3 0  9991
2 49263  97.4330  85.3248 0004852 204.0297 156.0734 15.59555074235647
JILIN-01 GAOFEN 2F
1 49338U 21097A   25362.12739712  .00005650  00000-0  38913-3 0  9999
2 49338  97.6490 124.2049 0020845  89.9938 270.3677 15.06087570230557
TEIKYOSAT-4 (OORURI)
1 49396U 21102B   25362.05590848  .00002789  00000-0  18141-3 0  9998
2 49396  97.3882  33.0790 0012802 155.2797 204.9048 15.08712142226919
Z-SAT
1 49399U 21102E   25362.15126315  .00004172  00000-0  21609-3 0  9997
2 49399  97.3569  37.6301 0018684 120.8603 239.4471 15.16582526227509
KOSEN-1
1 49402U 21102H   25362.07008700  .00010725  00000-0  44559-3 0  9990
2 49402  97.3457  42.6413 0016258  91.9287 268.3812 15.23866498227939
CAMSAT XW-3 (CAS-9)
1 50466U 21131B   25362.20254927  .00000682  00000-0  22542-3 0  9992
2 50466  98.5038  90.5453 0003167 245.0278 115.0582 14.41133330210487
INSPIRESAT-1
1 51657U 22013B   25362.08425735  .00076475  00000-0  82991-3 0  9995
2 51657  97.4625  39.8605 0002462 352.4850   7.6370 15.63263709215644
